satname,norad_id,inclination_deg,eccentricity,mean_motion_rev_per_day,perigee_km,apogee_km,l1,l2
STARLINK-1573,46061,53.1631,0.0001074,15.3170515,469.9890756461464,471.46021112714607,1 46061U 20055AL  26175.15443445  .00001671  00000+0  65602-4 0  9997,2 46061  53.1631 338.5753 0001074  73.0257 287.0862 15.31705150325380
STARLINK-1577,46063,53.161,6.04e-05,15.31723884,470.25513131933894,471.0824670598804,1 46063U 20055AN  26175.18238312  .00005740  00000+0  19645-3 0  9993,2 46063  53.1610 338.4430 0000604  65.3028 294.8037 15.31723884325382
STARLINK-1583,46064,53.16,0.0001095,15.31705968,469.9722549030148,471.47215506890734,1 46064U 20055AP  26174.73969556  .00004146  00000+0  14526-3 0  9997,2 46064  53.1600 341.0057 0001095  80.9187 279.1938 15.31705968325302
STARLINK-1536,46070,53.1607,0.0001302,15.3170165,469.84335352154085,471.6267998103049,1 46070U 20055AV  26175.13248158 -.00004321  00000+0 -12755-3 0  9996,2 46070  53.1607 326.5616 0001302  86.8903 273.2247 15.31701650325545
STARLINK-1542,46073,53.1604,0.0001131,15.31704825,469.9510058280375,471.50021855091563,1 46073U 20055AY  26175.15685661  .00002472  00000+0  91368-4 0  9996,2 46073  53.1604 329.4170 0001131  83.5703 276.5427 15.31704825325491
STARLINK-1549,46074,53.0496,0.0001629,15.32954185,465.8888107692692,468.11895766934776,1 46074U 20055AZ  26175.25002315  .00052141  00000+0  16155-2 0  9994,2 46074  53.0496 326.0681 0001629 102.1897 216.1586 15.32954185  5807
STARLINK-1551,46075,53.1624,0.0001086,15.3171795,469.94270550146666,471.4302699630016,1 46075U 20055BA  26175.12347671  .00003516  00000+0  12495-3 0  9994,2 46075  53.1624 326.5394 0001086  94.4139 265.6986 15.31717950325531
STARLINK-1552,46076,53.1609,0.0001044,15.31688142,470.0603170859895,471.4903699833194,1 46076U 20055BB  26174.71795740  .00002585  00000+0  95062-4 0  9990,2 46076  53.1609 328.0114 0001044  79.6236 280.4883 15.31688142325462
STARLINK-1559,46077,53.0205,0.0001951,15.39806524,445.3494263562652,448.01247031970615,1 46077U 20055BC  26174.63856515  .00040101  00000+0  10010-2 0  9994,2 46077  53.0205 296.8057 0001951 338.0959  21.9960 15.39806524325854
STARLINK-1566,46079,53.1604,0.0001562,15.31708102,469.646052877516,471.78563450588535,1 46079U 20055BE  26175.11409453  .00000979  00000+0  43304-4 0  9998,2 46079  53.1604 326.0220 0001562  91.3058 268.8122 15.31708102325548
STARLINK-1568,46080,53.0564,0.0003034,15.55572715,398.43169342218425,402.5449632714244,1 46080U 20055BF  26174.49693882  .00033629  00000+0  48728-3 0  9993,2 46080  53.0564 244.6380 0003034  61.8164 298.3153 15.55572715326618
STARLINK-1578,46082,53.1613,0.0001173,15.31694968,469.9516203658095,471.55837042792973,1 46082U 20055BH  26175.11850650 -.00002524  00000+0 -69599-4 0  9995,2 46082  53.1613 326.5176 0001173  96.5759 263.5376 15.31694968325536
STARLINK-1579,46083,53.1606,0.0001087,15.31712249,469.9590128769896,471.4479507977403,1 46083U 20055BJ  26174.77852100  .00003771  00000+0  13317-3 0  9998,2 46083  53.1606 327.6378 0001087  91.2212 268.8914 15.31712249325488
STARLINK-1622,46128,53.0123,0.0004439,15.92007583,293.7025557623665,299.62844542239236,1 46128U 20057M   26175.25002315  .00260563  36571-4  77544-3 0  9992,2 46128  53.0123  52.6123 0004439 180.4570  88.1905 15.92007583  6019
STARLINK-1623,46129,53.0381,0.0004152,15.78862752,330.87494930059347,336.44842693120427,1 46129U 20057N   26175.03402008  .00145192  00000+0  79609-3 0  9999,2 46129  53.0381  93.3380 0004152 103.1263 257.0221 15.78862752323589
STARLINK-1596,46141,53.0331,0.000535,15.62618523,376.48089464366876,383.7122045417318,1 46141U 20057AA  26175.02868926  .00095353  00000+0  10399-2 0  9990,2 46141  53.0331  77.7082 0005350  99.8750 260.2868 15.62618523323802
STARLINK-1597,46142,53.0384,0.0004515,15.78325433,332.1538293704252,338.2159590408937,1 46142U 20057AB  26175.14139784  .00130308  00000+0  73355-3 0  9999,2 46142  53.0384 132.5934 0004515  87.4356 272.7181 15.78325433323037
STARLINK-1606,46144,53.027,0.0008032,16.18983956,217.01049354373663,227.61345477582745,1 46144U 20057AD  26175.90434933  .01983637  11778-4  10745-2 0  9993,2 46144  53.0270  78.2582 0008032 236.8528 123.1739 16.18983956312117
STARLINK-1608,46146,53.1571,0.0006068,15.37528861,449.2739916726323,457.564768495502,1 46146U 20057AF  26175.17570968  .00040886  00000+0  10984-2 0  9998,2 46146  53.1571 172.5981 0006068  33.0897 327.0485 15.37528861322516
STARLINK-1667,46155,53.0083,0.0005922,16.03422526,261.0146512135343,268.88272190069256,1 46155U 20057AQ  26174.92809158  .00606533  18332-3  94883-3 0  9995,2 46155  53.0083  52.4480 0005922 223.1953 136.8614 16.03422526325378
STARLINK-1545,46156,53.0338,0.0005096,15.94700514,285.75135345114177,292.54665134478637,1 46156U 20057AR  26175.25002315  .00413223  78892-4  10618-2 0  9996,2 46156  53.0338  87.9293 0005096 224.5973 147.6045 15.94700514  5958
STARLINK-1595,46159,53.0378,0.0005376,15.75920558,338.40014933782186,345.6256545123715,1 46159U 20057AU  26175.13312324  .00113740  00000+0  71404-3 0  9993,2 46159  53.0378 135.6617 0005376  81.6172 278.5456 15.75920558324258
STARLINK-1598,46160,53.0424,6.12e-05,15.75190133,343.67878999079403,344.50159059888574,1 46160U 20057AV  26175.11232248  .00103727  00000+0  67391-3 0  9993,2 46160  53.0424 121.9837 0000612  25.8417 334.2632 15.75190133324438
STARLINK-1626,46167,53.0379,0.0001469,15.79157125,331.84171733547373,333.8133987226229,1 46167U 20057BC  26175.12862430  .00239969  00000+0  12821-2 0  9998,2 46167  53.0379 130.9325 0001469 106.5022 253.6160 15.79157125323062
STARLINK-1633,46171,53.0307,0.0003838,15.8923397,301.86461385555685,306.99415181101995,1 46171U 20057BG  26175.25002315  .00297251  00000+0  97582-3 0  9991,2 46171  53.0307  90.2921 0003838 209.8135 236.5443 15.89233970  5966
STARLINK-1635,46172,53.0297,0.0006323,15.99945018,270.3646028612311,278.7776175373883,1 46172U 20057BH  26175.25002315  .00544624  14102-3  10443-2 0  9993,2 46172  53.0297  87.2072 0006323 222.8617 241.1886 15.99945018  5844
STARLINK-1640,46173,53.0374,0.0004978,15.76076168,338.2254925845391,344.9156334342715,1 46173U 20057BJ  26175.23217694  .00117185  00000+0  73033-3 0  9991,2 46173  53.0374 136.1912 0004978  76.1071 284.0501 15.76076168322990
STARLINK-1641,46174,53.0455,0.0001155,15.64591562,373.63375709014963,375.19359629646533,1 46174U 20057BK  26175.14599901  .00064573  00000+0  65634-3 0  9996,2 46174  53.0455 129.5065 0001155 103.8794 256.2349 15.64591562323089
